[{"OBJECT_NAME":"STARLINK-5511","OBJECT_ID":"2023-094AL","EPOCH":"2026-03-09T22:00:01.999584","MEAN_MOTION":15.05534015,"ECCENTRICITY":0.000199,"INCLINATION":43.0016,"RA_OF_ASC_NODE":16.078,"ARG_OF_PERICENTER":266.7352,"MEAN_ANOMALY":114.3628,"EPHEMERIS_TYPE":0,"CLASSIFICATION_TYPE":"U","NORAD_CAT_ID":57252,"ELEMENT_SET_NO":999,"REV_AT_EPOCH":573,"BSTAR":0.0021219726,"MEAN_MOTION_DOT":0.00030984,"MEAN_MOTION_DDOT":0},{"OBJECT_NAME":"D-SAT","OBJECT_ID":"2017-036AF","EPOCH":"2026-03-09T22:00:14.910336","MEAN_MOTION":15.15529522,"ECCENTRICITY":0.00852401,"INCLINATION":97.5487,"RA_OF_ASC_NODE":48.252,"ARG_OF_PERICENTER":144.4633,"MEAN_ANOMALY":216.2319,"EPHEMERIS_TYPE":0,"CLASSIFICATION_TYPE":"U","NORAD_CAT_ID":42794,"ELEMENT_SET_NO":999,"REV_AT_EPOCH":47581,"BSTAR":0.00038655305,"MEAN_MOTION_DOT":7.964e-5,"MEAN_MOTION_DDOT":0}]
